     2              NAVIGATION DATA                         RINEX VERSION / TYPE
CCRINEXN V1.6.0 UX  CDDIS               10-OCT-25 16:53     PGM / RUN BY / DATE 
IGS BROADCAST EPHEMERIS FILE                                COMMENT             
    0.1956D-07  0.0000D+00 -0.1192D-06  0.0000D+00          ION ALPHA           
    0.1229D+06 -0.1638D+05 -0.2621D+06  0.1966D+06          ION BETA            
    0.186264514923D-08 0.532907051820D-14    61440     2388 DELTA-UTC: A0,A1,T,W
    18                                                      LEAP SECONDS        
                                                            END OF HEADER       
27 25 10 10  9 59 44.0-0.277678482234D-04-0.147792889038D-11 0.000000000000D+00
    0.100000000000D+01 0.113500000000D+03 0.481484341470D-08-0.579866849828D+00
    0.620074570179D-05 0.135996731697D-01 0.461563467979D-05 0.515365811729D+04
    0.467984000000D+06 0.409781932831D-07-0.165306175778D+01 0.208616256714D-06
    0.954463644236D+00 0.288468750000D+03 0.854166302564D+00-0.855321341853D-08
    0.255367779950D-09 0.100000000000D+01 0.238700000000D+04 0.000000000000D+00
    0.200000000000D+01 0.000000000000D+00 0.186264500000D-08 0.100000000000D+01
    0.463200000000D+06 0.400000000000D+01 0.000000000000D+00 0.000000000000D+00
29 25 10 10  9 59 44.0-0.442907214165D-03 0.557065504836D-11 0.000000000000D+00
    0.110000000000D+02 0.131468750000D+03 0.452197407266D-08-0.773779110640D+00
    0.658445060253D-05 0.332023261581D-02 0.333227217197D-05 0.515358673286D+04
    0.467984000000D+06 0.111758708954D-07-0.156497606333D+01-0.819563865662D-07
    0.963686258704D+00 0.314093750000D+03 0.279195769327D+01-0.834999066777D-08
    0.331442377334D-09 0.100000000000D+01 0.238700000000D+04 0.000000000000D+00
    0.200000000000D+01 0.000000000000D+00-0.977888703346D-08 0.110000000000D+02
    0.462456000000D+06 0.400000000000D+01 0.000000000000D+00 0.000000000000D+00
30 25 10 10  9 59 44.0-0.104820355773D-04 0.112549969344D-10 0.000000000000D+00
    0.290000000000D+02-0.294687500000D+02 0.533879381076D-08 0.263651092499D+01
   -0.168196856976D-05 0.768837425858D-02 0.648386776447D-05 0.515359952354D+04
    0.467984000000D+06-0.353902578354D-07 0.254238407961D+01-0.987201929092D-07
    0.935958561471D+00 0.239968750000D+03-0.235427547814D+01-0.823641450830D-08
   -0.428589281035D-09 0.100000000000D+01 0.238700000000D+04 0.000000000000D+00
    0.200000000000D+01 0.000000000000D+00 0.419095158577D-08 0.290000000000D+02
    0.467707000000D+06 0.400000000000D+01 0.000000000000D+00 0.000000000000D+00
 1 25 10 10 10  0  0.0 0.351816415787D-03 0.193267624127D-11 0.000000000000D+00
    0.138000000000D+03-0.746562500000D+02 0.470912472537D-08-0.171418563503D+01
   -0.399723649025D-05 0.847023911774D-03 0.281073153019D-05 0.515365390205D+04
    0.468000000000D+06 0.428408384323D-07-0.515337306599D+00-0.689178705216D-07
    0.958951932494D+00 0.324531250000D+03-0.792292600796D-01-0.841106464032D-08
   -0.151434879299D-09 0.100000000000D+01 0.238700000000D+04 0.000000000000D+00
    0.200000000000D+01 0.000000000000D+00-0.884756445885D-08 0.906000000000D+03
    0.460866000000D+06 0.400000000000D+01 0.000000000000D+00 0.000000000000D+00
 3 25 10 10 10  0  0.0 0.664186663926D-03-0.557065504836D-11 0.000000000000D+00
    0.390000000000D+02-0.896250000000D+02 0.353871883042D-08 0.227869370879D+01
   -0.483356416225D-05 0.635905831587D-02 0.998750329018D-05 0.515370859146D+04
    0.468000000000D+06-0.130385160446D-07 0.466567310241D+00-0.108033418655D-06
    0.991748725721D+00 0.200593750000D+03 0.123211103181D+01-0.742066624339D-08
    0.971469037013D-10 0.100000000000D+01 0.238700000000D+04 0.000000000000D+00
    0.200000000000D+01 0.000000000000D+00 0.139698400000D-08 0.390000000000D+02
    0.460830000000D+06 0.400000000000D+01 0.000000000000D+00 0.000000000000D+00
 4 25 10 10 10  0  0.0 0.146529637277D-04 0.329691829393D-11 0.000000000000D+00
    0.178000000000D+03 0.171875000000D+01 0.450125892407D-08-0.838076592637D+00
   -0.353902578354D-07 0.352487666532D-02 0.789761543274D-05 0.515357397461D+04
    0.468000000000D+06 0.502914190292D-07 0.153913341650D+01-0.633299350738D-07
    0.968720320735D+00 0.232468750000D+03-0.295388027617D+01-0.792961601462D-08
    0.386087510666D-09 0.100000000000D+01 0.238700000000D+04 0.000000000000D+00
    0.200000000000D+01 0.000000000000D+00-0.465661287308D-08 0.690000000000D+03
    0.460825000000D+06 0.400000000000D+01 0.000000000000D+00 0.000000000000D+00
 5 25 10 10 10  0  0.0-0.221300870180D-03-0.795807864051D-12 0.000000000000D+00
    0.550000000000D+02-0.115625000000D+03 0.394837875154D-08-0.352796869028D+00
   -0.588223338127D-05 0.561157276388D-02 0.106412917376D-04 0.515363516426D+04
    0.468000000000D+06-0.447034835815D-07 0.408734777764D+00-0.558793544769D-08
    0.978439111665D+00 0.182031250000D+03 0.143904172893D+01-0.783639784600D-08
    0.621454457501D-10 0.100000000000D+01 0.238700000000D+04 0.000000000000D+00
    0.200000000000D+01 0.000000000000D+00-0.107102096081D-07 0.550000000000D+02
    0.460818000000D+06 0.400000000000D+01 0.000000000000D+00 0.000000000000D+00
 6 25 10 10 10  0  0.0-0.544861890376D-03-0.100044417195D-10 0.000000000000D+00
    0.970000000000D+02-0.772187500000D+02 0.420338937375D-08-0.252338846725D+01
   -0.380165874958D-05 0.352794758510D-02 0.251457095146D-05 0.515365789223D+04
    0.468000000000D+06-0.875443220139D-07-0.568843645067D+00-0.149011611938D-07
    0.987966631907D+00 0.345281250000D+03-0.705972512417D+00-0.807426489697D-08
   -0.144291724615D-09 0.100000000000D+01 0.238700000000D+04 0.000000000000D+00
    0.200000000000D+01 0.000000000000D+00 0.372529029846D-08 0.970000000000D+02
    0.460818000000D+06 0.400000000000D+01 0.000000000000D+00 0.000000000000D+00
 7 25 10 10 10  0  0.0-0.890032388270D-04-0.579802872380D-11 0.000000000000D+00
    0.111000000000D+03-0.301875000000D+02 0.488948938114D-08 0.276333609458D+01
   -0.170618295670D-05 0.199049978983D-01 0.647641718388D-05 0.515367069626D+04
    0.468000000000D+06 0.912696123123D-07 0.254924721056D+01-0.236555933952D-06
    0.950740377284D+00 0.244562500000D+03-0.202252829451D+01-0.781389690874D-08
   -0.446090010011D-09 0.100000000000D+01 0.238700000000D+04 0.000000000000D+00
    0.200000000000D+01 0.000000000000D+00-0.107102100000D-07 0.111000000000D+03
    0.465540000000D+06 0.400000000000D+01 0.000000000000D+00 0.000000000000D+00
 8 25 10 10 10  0  0.0 0.528693199158D-03-0.159161572810D-11 0.000000000000D+00
    0.520000000000D+02 0.114718750000D+03 0.488198906873D-08-0.655839467009D+00
    0.617466866970D-05 0.107829843182D-01 0.427290797234D-05 0.515363011932D+04
    0.468000000000D+06 0.197440385819D-06-0.168387318684D+01 0.763684511185D-07
    0.945387321577D+00 0.286437500000D+03 0.466869983603D+00-0.851964059151D-08
    0.243581574722D-09 0.100000000000D+01 0.238700000000D+04 0.000000000000D+00
    0.200000000000D+01 0.000000000000D+00 0.465661300000D-08 0.520000000000D+02
    0.466290000000D+06 0.400000000000D+01 0.000000000000D+00 0.000000000000D+00
 9 25 10 10 10  0  0.0 0.750937964767D-03 0.420641299570D-11 0.000000000000D+00
    0.890000000000D+02 0.837500000000D+01 0.467090884782D-08-0.975058862430D-01
    0.352039933205D-06 0.353646813892D-02 0.808201730251D-05 0.515362384605D+04
    0.468000000000D+06-0.875443220139D-07 0.147588727521D+01-0.521540641785D-07
    0.962780440310D+00 0.224906250000D+03 0.202362340573D+01-0.803462038848D-08
    0.451804533758D-09 0.100000000000D+01 0.238700000000D+04 0.000000000000D+00
    0.200000000000D+01 0.000000000000D+00 0.465661287308D-09 0.890000000000D+02
    0.460828000000D+06 0.400000000000D+01 0.000000000000D+00 0.000000000000D+00
11 25 10 10 10  0  0.0-0.587290152907D-03 0.133013600134D-10 0.000000000000D+00
    0.225000000000D+03-0.885937500000D+02 0.468412368398D-08-0.149619407033D+01
   -0.446103513241D-05 0.223578303121D-02 0.186450779438D-05 0.515373572159D+04
    0.468000000000D+06-0.447034835815D-07-0.546900558523D+00 0.316649675369D-07
    0.964796448216D+00 0.344593750000D+03-0.234015794417D+01-0.842927968476D-08
   -0.147148986489D-09 0.100000000000D+01 0.238700000000D+04 0.000000000000D+00
    0.200000000000D+01 0.000000000000D+00-0.884756445885D-08 0.993000000000D+03
    0.460818000000D+06 0.400000000000D+01 0.000000000000D+00 0.000000000000D+00
13 25 10 10 10  0  0.0 0.696908216923D-03-0.795807864051D-12 0.000000000000D+00
    0.780000000000D+02 0.153125000000D+01 0.456697594716D-08-0.943396091114D+00
    0.108033418655D-06 0.979467981961D-02 0.705569982529D-05 0.515366829872D+04
    0.468000000000D+06 0.521540641785D-07 0.164912024247D+01 0.258907675743D-06
    0.974524173186D+00 0.249937500000D+03 0.100354529042D+01-0.800069040373D-08
    0.348228790841D-09 0.100000000000D+01 0.238700000000D+04 0.000000000000D+00
    0.200000000000D+01 0.000000000000D+00-0.116415321827D-07 0.780000000000D+02
    0.467706000000D+06 0.400000000000D+01 0.000000000000D+00 0.000000000000D+00
15 25 10 10 10  0  0.0 0.346510205418D-03 0.375166564481D-11 0.000000000000D+00
    0.230000000000D+02-0.312500000000D+00 0.502628079334D-08-0.167252942308D+01
    0.208616256714D-06 0.167149767512D-01 0.869669020176D-05 0.515363640785D+04
    0.468000000000D+06 0.229105353355D-06 0.133530746750D+01 0.407919287682D-06
    0.940513614384D+00 0.198906250000D+03 0.147232207217D+01-0.805676416800D-08
    0.522164607395D-09 0.100000000000D+01 0.238700000000D+04 0.000000000000D+00
    0.200000000000D+01 0.000000000000D+00-0.107102096081D-07 0.230000000000D+02
    0.466878000000D+06 0.400000000000D+01 0.000000000000D+00 0.000000000000D+00
